NORAD_CAT_ID,OBJECT_NAME,OBJECT_TYPE,EPOCH,MEAN_MOTION,ECCENTRICITY,INCLINATION,RA_OF_ASC_NODE,ARG_OF_PERICENTER,MEAN_ANOMALY,BSTAR,MEAN_MOTION_DOT,MEAN_MOTION_DDOT,TLE_LINE0,TLE_LINE1,TLE_LINE2,SEMIMAJOR_AXIS,PERIOD,APOGEE,PERIGEE,DECAYED
55956.0,STARLINK-5883,PAYLOAD,2023-04-04 08:00:01,15.70620398,0.0003789,69.9945,131.6648,273.6191,238.3625,-0.0071776,-0.00808021,0.0,0 STARLINK-5883,1 55956U 23037AU  23094.33335648 -.00808021  00000-0 -71776-2 0  9999,2 55956  69.9945 131.6648 0003789 273.6191 238.3625 15.70620398  3282,6735.26,91.684,359.677,354.573,0.0
55956.0,STARLINK-5883,PAYLOAD,2023-04-04 14:00:01,15.70024871,0.0003899,69.9949,130.9612,275.7038,209.1543,-0.0013402,-0.00159036,0.0,0 STARLINK-5883,1 55956U 23037AU  23094.58334491 -.00159036  00000-0 -13402-2 0  9998,2 55956  69.9949 130.9612 0003899 275.7038 209.1543 15.70024871  3328,6736.963,91.718,361.455,356.201,0.0
55956.0,STARLINK-5883,PAYLOAD,2023-04-04 22:00:00,15.69867872,0.000387,69.9953,130.0235,268.613,299.6464,0.00085759,0.00103959,0.0,0 STARLINK-5883,1 55956U 23037AU  23094.91667824  .00103959  00000-0  85759-3 0  9990,2 55956  69.9953 130.0235 0003870 268.6130 299.6464 15.69867872  3373,6737.412,91.727,361.884,356.67,0.0
55956.0,STARLINK-5883,PAYLOAD,2023-04-05 06:00:00,15.69951498,0.0003727,69.9961,129.0862,270.6789,20.8908,-0.00061217,-0.00073273,0.0,0 STARLINK-5883,1 55956U 23037AU  23095.25001157 -.00073273  00000-0 -61217-3 0  9999,2 55956  69.9961 129.0862 0003727 270.6789  20.8908 15.69951498  3432,6737.173,91.723,361.549,356.527,0.0
55956.0,STARLINK-5883,PAYLOAD,2023-04-05 14:00:01,15.69921997,0.0003521,69.9968,128.1487,275.3621,99.5524,3.7208e-05,4.263e-05,0.0,0 STARLINK-5883,1 55956U 23037AU  23095.58334491  .00004263  00000-0  37208-4 0  9990,2 55956  69.9968 128.1487 0003521 275.3621  99.5524 15.69921997  1303,6737.257,91.724,361.494,356.75,0.0
55956.0,STARLINK-5883,PAYLOAD,2023-04-05 16:00:00,15.69955749,0.000344,69.9974,127.9143,273.7666,211.9724,-0.00060596,-0.00072545,0.0,0 STARLINK-5883,1 55956U 23037AU  23095.66667824 -.00072545  00000-0 -60596-3 0  9993,2 55956  69.9974 127.9143 0003440 273.7666 211.9724 15.69955749  3493,6737.161,91.722,361.343,356.708,0.0
55956.0,STARLINK-5883,PAYLOAD,2023-04-05 22:00:00,15.69862336,0.0003458,69.997,127.2114,267.3053,190.9616,0.00095005,0.00115312,0.0,0 STARLINK-5883,1 55956U 23037AU  23095.91667824  .00115312  00000-0  95005-3 0  9992,2 55956  69.9970 127.2114 0003458 267.3053 190.9616 15.69862336  1301,6737.428,91.728,361.623,356.963,0.0
55956.0,STARLINK-5883,PAYLOAD,2023-04-06 10:00:00,15.69886651,0.0003379,69.9987,125.8054,273.2673,129.9836,0.00061703,0.00074526,0.0,0 STARLINK-5883,1 55956U 23037AU  23096.41667824  .00074526  00000-0  61703-3 0  9997,2 55956  69.9987 125.8054 0003379 273.2673 129.9836 15.69886651  3610,6737.358,91.726,361.5,356.947,0.0
55956.0,STARLINK-5883,PAYLOAD,2023-04-06 14:00:01,15.69959662,0.0003398,69.9988,125.3365,272.2571,352.7151,-0.00040755,-0.00049005,0.0,0 STARLINK-5883,1 55956U 23037AU  23096.58335648 -.00049005  00000-0 -40755-3 0  9991,2 55956  69.9988 125.3365 0003398 272.2571 352.7151 15.69959662  1301,6737.149,91.722,361.304,356.725,0.0
55956.0,STARLINK-5883,PAYLOAD,2023-04-06 22:00:00,15.69872907,0.0003323,69.9995,124.3994,262.9375,85.3462,0.00066105,0.00079863,0.0,0 STARLINK-5883,1 55956U 23037AU  23096.91667824  .00079863  00000-0  66105-3 0  9992,2 55956  69.9995 124.3994 0003323 262.9375  85.3462 15.69872907  1302,6737.398,91.727,361.501,357.024,0.0
55956.0,STARLINK-5883,PAYLOAD,2023-04-07 14:00:01,15.69947191,0.0003275,69.9997,122.5252,266.198,248.7147,-0.00028682,-0.00034591,0.0,0 STARLINK-5883,1 55956U 23037AU  23097.58334491 -.00034591  00000-0 -28682-3 0  9996,2 55956  69.9997 122.5252 0003275 266.1980 248.7147 15.69947191  3793,6737.185,91.723,361.257,356.844,0.0
55956.0,STARLINK-5883,PAYLOAD,2023-04-08 10:45:04,15.69929181,0.0003363,69.9994,120.0942,260.4173,99.6643,8.1886e-05,9.647e-05,0.0,0 STARLINK-5883,1 55956U 23037AU  23098.44797397  .00009647  00000-0  81886-4 0  9998,2 55956  69.9994 120.0942 0003363 260.4173  99.6643 15.69929181  3937,6737.237,91.724,361.367,356.836,0.0
55956.0,STARLINK-5883,PAYLOAD,2023-04-09 03:34:21,15.69931463,0.0003343,69.9999,118.1229,258.0264,102.0557,0.00013825,0.00016448,0.0,0 STARLINK-5883,1 55956U 23037AU  23099.14885907  .00016448  00000-0  13825-3 0  9995,2 55956  69.9999 118.1229 0003343 258.0264 102.0557 15.69931463  4042,6737.23,91.724,361.347,356.843,0.0
55956.0,STARLINK-5883,PAYLOAD,2023-04-09 11:13:07,15.69926148,0.0003232,69.9998,117.2271,259.444,100.6391,9.768e-05,0.00011549,0.0,0 STARLINK-5883,1 55956U 23037AU  23099.46744267  .00011549  00000-0  97680-4 0  9992,2 55956  69.9998 117.2271 0003232 259.4440 100.6391 15.69926148  3757,6737.245,91.724,361.288,356.933,0.0
55956.0,STARLINK-5883,PAYLOAD,2023-04-09 18:51:52,15.69931425,0.0003173,70.0002,116.3318,259.0793,101.0046,6.7587e-05,7.924e-05,0.0,0 STARLINK-5883,1 55956U 23037AU  23099.78602556  .00007924  00000-0  67587-4 0  9996,2 55956  70.0002 116.3318 0003173 259.0793 101.0046 15.69931425  4149,6737.23,91.724,361.233,356.957,0.0
55956.0,STARLINK-5883,PAYLOAD,2023-04-10 13:12:54,15.69924722,0.0003519,70.0006,114.1833,263.5755,96.504,1.5839e-05,1.692e-05,0.0,0 STARLINK-5883,1 55956U 23037AU  23100.55062572  .00001692  00000-0  15839-4 0  9991,2 55956  70.0006 114.1833 0003519 263.5755  96.5040 15.69924722  4260,6737.249,91.724,361.485,356.744,0.0
55956.0,STARLINK-5883,PAYLOAD,2023-04-10 17:48:09,15.6993479,0.0003378,70.0007,113.6463,266.1934,93.8876,2.8873e-05,3.262e-05,0.0,0 STARLINK-5883,1 55956U 23037AU  23100.74177292  .00003262  00000-0  28873-4 0  9995,2 55956  70.0007 113.6463 0003378 266.1934  93.8876 15.69934790  3953,6737.221,91.724,361.361,356.81,0.0
55956.0,STARLINK-5883,PAYLOAD,2023-04-11 12:09:11,15.69920356,0.0003499,70.0001,111.4978,265.165,94.9146,-1.0719e-05,-1.501e-05,0.0,0 STARLINK-5883,1 55956U 23037AU  23101.50637911 -.00001501  00000-0 -10719-4 0  9995,2 55956  70.0001 111.4978 0003499 265.1650  94.9146 15.69920356  4071,6737.262,91.724,361.484,356.769,0.0
55956.0,STARLINK-5883,PAYLOAD,2023-04-11 18:16:11,15.69933096,0.0003588,69.9992,110.7792,263.3179,96.7608,2.4654e-05,2.754e-05,0.0,0 STARLINK-5883,1 55956U 23037AU  23101.76124050  .00002754  00000-0  24654-4 0  9990,2 55956  69.9992 110.7792 0003588 263.3179  96.7608 15.69933096  4111,6737.225,91.724,361.508,356.673,0.0
55956.0,STARLINK-5883,PAYLOAD,2023-04-12 09:33:43,15.69918548,0.0003165,70.0008,108.9891,259.6432,100.4407,1.5029e-06,-3.2e-07,0.0,0 STARLINK-5883,1 55956U 23037AU  23102.39841545 -.00000032  00000-0  15029-5 0  9990,2 55956  70.0008 108.9891 0003165 259.6432 100.4407 15.69918548  4555,6737.267,91.725,361.264,357.0,0.0
55956.0,STARLINK-5883,PAYLOAD,2023-04-13 10:01:45,15.69915651,0.0002874,70.0024,106.1245,260.3317,99.7554,-4.2592e-06,-7.24e-06,0.0,0 STARLINK-5883,1 55956U 23037AU  23103.41788435 -.00000724  00000-0 -42592-5 0  9996,2 55956  70.0024 106.1245 0002874 260.3317  99.7554 15.69915651  4378,6737.275,91.725,361.077,357.204,0.0
55956.0,STARLINK-5883,PAYLOAD,2023-04-14 08:58:03,15.69874295,0.0002873,70.0015,103.4383,257.5351,102.5523,-0.00012051,-0.00014646,0.0,0 STARLINK-5883,1 55956U 23037AU  23104.37364972 -.00014646  00000-0 -12051-3 0  9991,2 55956  70.0015 103.4383 0002873 257.5351 102.5523 15.69874295  4867,6737.394,91.727,361.194,357.323,0.0
55956.0,STARLINK-5883,PAYLOAD,2023-04-14 10:29:48,15.69876291,0.0002472,70.0015,103.2596,274.0384,86.0529,-0.00010703,-0.00013034,0.0,0 STARLINK-5883,1 55956U 23037AU  23104.43736930 -.00013034  00000-0 -10703-3 0  9997,2 55956  70.0015 103.2596 0002472 274.0384  86.0529 15.69876291  4530,6737.388,91.727,360.918,357.587,0.0
55956.0,STARLINK-5883,PAYLOAD,2023-04-15 06:22:33,15.69947657,0.000321,70.0011,100.9289,271.7087,88.3741,9.0862e-05,0.00010737,0.0,0 STARLINK-5883,1 55956U 23037AU  23105.26566874  .00010737  00000-0  90862-4 0  9997,2 55956  70.0011 100.9289 0003210 271.7087  88.3741 15.69947657  5003,6737.184,91.723,361.211,356.886,0.0
55956.0,STARLINK-5883,PAYLOAD,2023-04-15 09:26:03,15.69951095,0.000342,70.0014,100.5701,274.1721,85.9083,0.00012789,0.0001521,0.0,0 STARLINK-5883,1 55956U 23037AU  23105.39310156  .00015210  00000-0  12789-3 0  9993,2 55956  70.0014 100.5701 0003420 274.1721  85.9083 15.69951095  4682,6737.174,91.723,361.343,356.735,0.0
55956.0,STARLINK-5883,PAYLOAD,2023-04-16 02:15:20,15.6994293,0.0003077,70.0011,98.5986,277.3383,82.7463,5.9866e-05,6.997e-05,0.0,0 STARLINK-5883,1 55956U 23037AU  23106.09398168  .00006997  00000-0  59866-4 0  9990,2 55956  70.0011  98.5986 0003077 277.3383  82.7463 15.69942930  5133,6737.197,91.723,361.135,356.989,0.0
55956.0,STARLINK-5883,PAYLOAD,2023-04-16 09:54:06,15.69922116,0.000304,70.0014,97.7041,280.4219,79.6634,-3.1641e-06,-5.93e-06,0.0,0 STARLINK-5883,1 55956U 23037AU  23106.41257286 -.00000593  00000-0 -31641-5 0  9991,2 55956  70.0014  97.7041 0003040 280.4219  79.6634 15.69922116  5186,6737.257,91.724,361.17,357.074,0.0
55956.0,STARLINK-5883,PAYLOAD,2023-04-17 05:46:51,15.69951958,0.0003445,70.0005,95.3754,266.5418,93.5384,-0.00010501,-0.00012835,0.0,0 STARLINK-5883,1 55956U 23037AU  23107.24086820 -.00012835  00000-0 -10501-3 0  9999,2 55956  70.0005  95.3754 0003445 266.5418  93.5384 15.69951958  5314,6737.171,91.723,361.357,356.715,0.0
55956.0,STARLINK-5883,PAYLOAD,2023-04-17 08:50:22,15.69926083,0.000351,70.0002,95.0155,276.6808,83.3988,5.4276e-07,-1.48e-06,0.0,0 STARLINK-5883,1 55956U 23037AU  23107.36831841 -.00000148  00000-0  54276-6 0  9996,2 55956  70.0002  95.0155 0003510 276.6808  83.3988 15.69926083  5331,6737.245,91.724,361.475,356.746,0.0
55956.0,STARLINK-5883,PAYLOAD,2023-04-18 09:18:24,15.6993972,0.0003777,70.0029,92.1534,271.754,88.3223,5.7867e-05,6.756e-05,0.0,0 STARLINK-5883,1 55956U 23037AU  23108.38778310  .00006756  00000-0  57867-4 0  9997,2 55956  70.0029  92.1534 0003777 271.7540  88.3223 15.69939720  5499,6737.206,91.723,361.616,356.527,0.0
